CRE (WAAS/PRN 138)      
1 28868U 05036A   22268.50974444 -.00000073  00000+0  00000+0 0  9992
2 28868   0.8070  92.6926 0002389  47.6889 300.1333  1.00272314 32803
IOR-W (EGNOS/PRN 126)   
1 28899U 05044A   22268.46371262  .00000013  00000+0  00000+0 0  9992
2 28899   3.5774  38.1996 0002624 157.5817  39.3318  1.00272953 61876
QZS-1 (QZSS/PRN 183)    
1 37158U 10045A   22268.53696942 -.00000119  00000+0  00000+0 0  9998
2 37158  42.4343 132.0068 0745384 270.2177 292.5184  1.00285895 44099
GSAT-8 (GAGAN/PRN 127)  
1 37605U 11022A   22268.46196861  .00000085  00000+0  00000+0 0  9999
2 37605   0.0200 163.1162 0005894  88.8074 333.7530  1.00273277 39573
LUCH 5A (SDCM/PRN 140)  
1 37951U 11074B   22268.62176610 -.00000041  00000+0  00000+0 0  9991
2 37951   5.2646  95.7825 0004014  60.1857 239.2719  1.00274162 39549
SES-5 (EGNOS/PRN 136)   
1 38652U 12036A   22268.41924582  .00000034  00000+0  00000+0 0  9996
2 38652   0.0661 293.3814 0002105 250.2756 336.4828  1.00271558 30842
GSAT-10 (GAGAN/PRN 128) 
1 38779U 12051B   22268.46746223 -.00000165  00000+0  00000+0 0  9998
2 38779   0.0118 195.9227 0002908  38.9186  20.7350  1.00270981 36470
LUCH 5B (SDCM/PRN 125)  
1 38977U 12061A   22268.23242979 -.00000129  00000+0  00000+0 0  9993
2 38977   7.5038  61.8434 0005182 100.4779 269.1185  1.00272454 36533
ASTRA 5B (EGNOS/PRN 123)
1 39617U 14011B   22268.52965883  .00000155  00000+0  00000+0 0  9998
2 39617   0.0096 320.7810 0003512 225.7753  39.9400  1.00272057 31021
LUCH 5V (SDCM/PRN 141)  
1 39727U 14023A   22268.46981664 -.00000267  00000+0  00000+0 0  9996
2 39727   1.7299  76.4447 0003122 126.0925  65.6395  1.00272094 30713
GSAT-15 (GAGAN/PRN 139) 
1 41028U 15065A   22268.46955503 -.00000257  00000+0  00000+0 0  9992
2 41028   0.0280 103.8258 0002153  44.1735 118.8077  1.00270407 25166
E 117 W B (WAAS/PRN 131)
1 41589U 16038B   22268.27668597 -.00000011  00000+0  00000+0 0  9996
2 41589   0.0183  92.7783 0000273  37.8307 216.0532  1.00274258 23022
SES-15 (WAAS/PRN 133)   
1 42709U 17026A   22268.55268852  .00000061  00000+0  00000+0 0  9994
2 42709   0.0182 356.6061 0000279 173.8524 263.7164  1.00268952 20497
QZS-2 (QZSS/PRN 184)    
1 42738U 17028A   22268.29847966 -.00000149  00000+0  00000+0 0  9996
2 42738  41.6120 262.7574 0749784 270.3747  78.4128  1.00260246 19496
QZS-3 (QZSS/PRN 189)    
1 42917U 17048A   22268.53308117 -.00000347  00000+0  00000+0 0  9994
2 42917   0.0604 212.7936 0001330 338.1515 132.3641  1.00273896 18610
QZS-4 (QZSS/PRN 185)    
1 42965U 17062A   22268.50356161 -.00000302  00000+0  00000+0 0  9993
2 42965  40.7456   0.8384 0748613 269.7013  53.8614  1.00279644 18160
GALAXY 30 (WAAS/PRN 135)
1 46114U 20056C   22268.55947081  .00000038  00000+0  00000+0 0  9997
2 46114   0.0249 185.6910 0002408   4.1453 250.9309  1.00271450  7649
